1 45048U 20006E   22365.59500125  .00002913  00000-0  21437-3 0  9999
2 45048  53.0549 112.4356 0001494  79.9703 280.1455 15.06402641161006
1 45048U 20006E   23001.59022264 -.00002861  00000-0 -17327-3 0  9997
2 45048  53.0555 107.9672 0001516  79.3227 280.7933 15.06388132161491
1 45048U 20006E   23001.72291936 -.00003332  00000-0 -20496-3 0  9991
2 45048  53.0557 107.3724 0001563  73.9969 286.1192 15.06386090161173
1 45048U 20006E   23002.38638093 -.00000110  00000-0  11517-4 0  9998
2 45048  53.0555 104.3939 0001570  74.4405 285.6757 15.06392116161273
1 45048U 20006E   23002.58541947  .00000507  00000-0  52932-4 0  9996
2 45048  53.0555 103.5003 0001564  73.0766 287.0395 15.06394975161307
1 45048U 20006E   23003.51428027  .00005308  00000-0  37498-3 0  9996
2 45048  53.0546  99.3302 0001630  75.5110 284.6059 15.06398078161448
1 45048U 20006E   23004.50947899  .00005548  00000-0  39092-3 0  9997
2 45048  53.0551  94.8632 0001543  72.3537 287.7620 15.06410443161596
1 45048U 20006E   23005.50466999  .00006394  00000-0  44750-3 0  9992
2 45048  53.0548  90.3956 0001544  64.7774 295.3375 15.06422415161742
1 45048U 20006E   23006.43352289 -.00010117  00000-0 -66147-3 0  9995
2 45048  53.0548  86.2257 0001480  62.1469 297.9670 15.06387758161883
1 45048U 20006E   23007.16334306  .00002887  00000-0  21267-3 0  9993
2 45048  53.0552  82.9488 0001137  72.1613 287.9500 15.06391259161992
1 45048U 20006E   23007.89316602 -.00006330  00000-0 -40652-3 0  9990
2 45048  53.0537  79.6738 0002371  70.1605 289.9639 15.06387608162108
1 45048U 20006E   23008.49028640  .00010008  00000-0  68975-3 0  9992
2 45048  53.0546  76.9935 0001454  68.2848 291.8295 15.06401513162196
1 45048U 20006E   23009.35280168  .00008550  00000-0  59223-3 0  9998
2 45048  53.0546  73.1223 0001386  72.5641 287.5499 15.06398779162320
1 45048U 20006E   23009.88357635  .00009499  00000-0  65563-3 0  9997
2 45048  53.0546  70.7391 0001417  62.3163 297.7970 15.06407274162407
1 45048U 20006E   23010.41435554  .00003133  00000-0  22917-3 0  9990
2 45048  53.0543  68.3561 0001385  65.2346 294.8787 15.06394166162482
1 45048U 20006E   23011.40955035  .00004197  00000-0  30038-3 0  9995
2 45048  53.0545  63.8878 0001614  56.9675 303.1469 15.06410380162637
1 45048U 20006E   23011.87397646  .00004622  00000-0  32891-3 0  9996
2 45048  53.0546  61.8027 0001531  59.3454 300.7686 15.06408879162704
1 45048U 20006E   23012.40474915  .00002621  00000-0  19474-3 0  9990
2 45048  53.0541  59.4199 0001665  68.3892 291.7274 15.06406677162780
1 45048U 20006E   23013.46630432  .00000222  00000-0  33777-4 0  9993
2 45048  53.0540  54.6553 0001647  60.8695 299.2458 15.06394553162942
1 45048U 20006E   23013.79803503  .00001203  00000-0  99665-4 0  9998
2 45048  53.0544  53.1661 0001646  63.2950 296.8207 15.06401472162999
1 45048U 20006E   23015.52305283  .00002057  00000-0  15693-3 0  9999
2 45048  53.0555  45.4220 0001607  64.9406 295.1750 15.06401491163253
1 45048U 20006E   23015.78844409 -.00000683  00000-0 -26914-4 0  9999
2 45048  53.0559  44.2297 0001973  64.6519 295.4674 15.06394681163290
1 45048U 20006E   23016.45191154  .00002023  00000-0  15466-3 0  9993
2 45048  53.0548  41.2520 0001781  61.6899 298.4269 15.06400581163390
1 45048U 20006E   23016.78364171  .00002323  00000-0  17477-3 0  9997
2 45048  53.0549  39.7626 0001709  61.9923 298.1239 15.06406651163445
1 45048U 20006E   23017.44712261 -.00001898  00000-0 -10859-3 0  9993
2 45048  53.0553  36.7827 0001434  63.2706 296.8430 15.06386247163546
1 45048U 20006E   23018.44234106  .00001899  00000-0  14638-3 0  9999
2 45048  53.0551  32.3156 0001619  65.2570 294.8588 15.06387197163690
1 45048U 20006E   23019.43754024  .00020042  00000-0  13595-2 0  9996
2 45048  53.0548  27.8486 0001636  67.7140 292.4022 15.06429382163847
1 45048U 20006E   23020.30005491  .00007593  00000-0  52802-3 0  9992
2 45048  53.0553  23.9763 0001578  75.6370 284.4794 15.06403934163972
1 45048U 20006E   23025.34242259  .00009960  00000-0  68634-3 0  9996
2 45048  53.0557   1.3409 0001518  94.8798 265.2364 15.06415537164731
1 45048U 20006E   23026.13858790  .00001211  00000-0  10017-3 0  9990
2 45048  53.0562 357.7646 0001510  99.9637 260.1522 15.06400419164854
1 45048U 20006E   23027.33282627  .00003379  00000-0  24555-3 0  9992
2 45048  53.0559 352.4067 0001455  83.7265 276.3889 15.06409479165036
1 45048U 20006E   23028.26168715  .00001008  00000-0  86552-4 0  9999
2 45048  53.0557 348.2363 0001274  94.2527 265.8608 15.06399978165172
1 45048U 20006E   23028.85880893 -.00000268  00000-0  88280-6 0  9992
2 45048  53.0561 345.5548 0001288  97.6114 262.5022 15.06401662165264
1 45048U 20006E   23029.85401543  .00001616  00000-0  12738-3 0  9993
2 45048  53.0561 341.0884 0001319  95.5522 264.5617 15.06396690165416
1 45048U 20006E   23030.25209660  .00002033  00000-0  15534-3 0  9996
2 45048  53.0562 339.3014 0001330  90.6977 269.4165 15.06399423165470
1 45048U 20006E   23031.24729347  .00004835  00000-0  34315-3 0  9995
2 45048  53.0559 334.8335 0001358  90.4989 269.6156 15.06411172165628
1 45048U 20006E   23031.84441944  .00001050  00000-0  89369-4 0  9991
2 45048  53.0561 332.1517 0001523  97.6850 262.4312 15.06398050165718
